CTC2_L_00046001-01
1 10000U 24612UQ  26075.70040509  .00000000  00000+0  00000-0 0  9990
2 10000  40.0000   0.0000 0000000   0.0000   0.0000 15.48880433    12
CTC2_L_00046001-02
1 10001U 26153M   26075.70040509  .00000000  00000+0  00000-0 0  9993
2 10001  40.0000   0.0000 0000000   0.0000  90.0000 15.48880433    12
CTC2_L_00046001-03
1 10002U 22210SV  26075.70040509  .00000000  00000+0  00000-0 0  9994
2 10002  40.0000   0.0000 0000000   0.0000 180.0000 15.48880433    13
CTC2_L_00046001-04
1 10003U 23743YG  26075.70040509  .00000000  00000+0  00000-0 0  9997
2 10003  40.0000   0.0000 0000000   0.0000 270.0000 15.48880433    14
CTC2_L_00046002-01
1 10004U 23661SQ  26075.70040509  .00000000  00000+0  00000-0 0  9997
2 10004  40.0000  12.0000 0000000   0.0000  12.0000 15.48880433    12
CTC2_L_00046002-02
1 10005U 23294WA  26075.70040509  .00000000  00000+0  00000-0 0  9990
2 10005  40.0000  12.0000 0000000   0.0000 102.0000 15.48880433    13
CTC2_L_00046002-03
1 10006U 26435BB  26075.70040509  .00000000  00000+0  00000-0 0  9991
2 10006  40.0000  12.0000 0000000   0.0000 192.0000 15.48880433    13
CTC2_L_00046002-04
1 10007U 26684BN  26075.70040509  .00000000  00000+0  00000-0 0  9998
2 10007  40.0000  12.0000 0000000   0.0000 282.0000 15.48880433    14
CTC2_L_00046003-01
1 10008U 26689GS  26075.70040509  .00000000  00000+0  00000-0 0  9994
2 10008  40.0000  24.0000 0000000   0.0000  24.0000 15.48880433    12
CTC2_L_00046003-02
1 10009U 24967RU  26075.70040509  .00000000  00000+0  00000-0 0  9992
2 10009  40.0000  24.0000 0000000   0.0000 114.0000 15.48880433    13
CTC2_L_00046003-03
1 10010U 24061LD  26075.70040509  .00000000  00000+0  00000-0 0  9999
2 10010  40.0000  24.0000 0000000   0.0000 204.0000 15.48880433    15
CTC2_L_00046003-04
1 10011U 26157OW  26075.70040509  .00000000  00000+0  00000-0 0  9998
2 10011  40.0000  24.0000 0000000   0.0000 294.0000 15.48880433    15
CTC2_L_00046004-01
1 10012U 24028QK  26075.70040509  .00000000  00000+0  00000-0 0  9994
2 10012  40.0000  36.0000 0000000   0.0000  36.0000 15.48880433    13
CTC2_L_00046004-02
1 10013U 22053RH  26075.70040509  .00000000  00000+0  00000-0 0  9991
2 10013  40.0000  36.0000 0000000   0.0000 126.0000 15.48880433    14
CTC2_L_00046004-03
1 10014U 23953XN  26075.70040509  .00000000  00000+0  00000-0 0  9992
2 10014  40.0000  36.0000 0000000   0.0000 216.0000 15.48880433    15
CTC2_L_00046004-04
1 10015U 22280QO  26075.70040509  .00000000  00000+0  00000-0 0  9995
2 10015  40.0000  36.0000 0000000   0.0000 306.0000 15.48880433    16
CTC2_L_00046005-01
1 10016U 23524WL  26075.70040509  .00000000  00000+0  00000-0 0  9998
2 10016  40.0000  48.0000 0000000   0.0000  48.0000 15.48880433    13
CTC2_L_00046005-02
1 10017U 22866RR  26075.70040509  .00000000  00000+0  00000-0 0  9997
2 10017  40.0000  48.0000 0000000   0.0000 138.0000 15.48880433    14
CTC2_L_00046005-03
1 10018U 24041BR  26075.70040509  .00000000  00000+0  00000-0 0  9995
2 10018  40.0000  48.0000 0000000   0.0000 228.0000 15.48880433    15
CTC2_L_00046005-04
1 10019U 24015PY  26075.70040509  .00000000  00000+0  00000-0 0  9997
2 10019  40.0000  48.0000 0000000   0.0000 318.0000 15.48880433    16
CTC2_L_00046006-01
1 10020U 22945KE  26075.70040509  .00000000  00000+0  00000-0 0  9999
2 10020  40.0000  60.0000 0000000   0.0000  60.0000 15.48880433    16
CTC2_L_00046006-02
1 10021U 25936OY  26075.70040509  .00000000  00000+0  00000-0 0  9993
2 10021  40.0000  60.0000 0000000   0.0000 150.0000 15.48880433    17
CTC2_L_00046006-03
1 10022U 26831QH  26075.70040509  .00000000  00000+0  00000-0 0  9999
2 10022  40.0000  60.0000 0000000   0.0000 240.0000 15.48880433    18
CTC2_L_00046006-04
1 10023U 23516LM  26075.70040509  .00000000  00000+0  00000-0 0  9997
2 10023  40.0000  60.0000 0000000   0.0000 330.0000 15.48880433    19
CTC2_L_00046007-01
1 10024U 22185TO  26075.70040509  .00000000  00000+0  00000-0 0  9999
2 10024  40.0000  72.0000 0000000   0.0000  72.0000 15.48880433    16
CTC2_L_00046007-02
1 10025U 26947TV  26075.70040509  .00000000  00000+0  00000-0 0  9990
2 10025  40.0000  72.0000 0000000   0.0000 162.0000 15.48880433    17
CTC2_L_00046007-03
1 10026U 23192T   26075.70040509  .00000000  00000+0  00000-0 0  9990
2 10026  40.0000  72.0000 0000000   0.0000 252.0000 15.48880433    18
CTC2_L_00046007-04
1 10027U 25485FP  26075.70040509  .00000000  00000+0  00000-0 0  9998
2 10027  40.0000  72.0000 0000000   0.0000 342.0000 15.48880433    19
CTC2_L_00046008-01
1 10028U 26125BD  26075.70040509  .00000000  00000+0  00000-0 0  9991
2 10028  40.0000  84.0000 0000000   0.0000  84.0000 15.48880433    16
CTC2_L_00046008-02
1 10029U 25496SE  26075.70040509  .00000000  00000+0  00000-0 0  9992
2 10029  40.0000  84.0000 0000000   0.0000 174.0000 15.48880433    17
CTC2_L_00046008-03
1 10030U 26251WJ  26075.70040509  .00000000  00000+0  00000-0 0  9994
2 10030  40.0000  84.0000 0000000   0.0000 264.0000 15.48880433    19
CTC2_L_00046008-04
1 10031U 26007JB  26075.70040509  .00000000  00000+0  00000-0 0  9994
2 10031  40.0000  84.0000 0000000   0.0000 354.0000 15.48880433    10
CTC2_L_00046009-01
1 10032U 25456GS  26075.70040509  .00000000  00000+0  00000-0 0  9992
2 10032  40.0000  96.0000 0000000   0.0000  96.0000 15.48880433    17
CTC2_L_00046009-02
1 10033U 23662DQ  26075.70040509  .00000000  00000+0  00000-0 0  9990
2 10033  40.0000  96.0000 0000000   0.0000 186.0000 15.48880433    18
CTC2_L_00046009-03
1 10034U 26044JG  26075.70040509  .00000000  00000+0  00000-0 0  9998
2 10034  40.0000  96.0000 0000000   0.0000 276.0000 15.48880433    19
CTC2_L_00046009-04
1 10035U 26029RX  26075.70040509  .00000000  00000+0  00000-0 0  9992
2 10035  40.0000  96.0000 0000000   0.0000   6.0000 15.48880433    11
CTC2_L_00046010-01
1 10036U 23316RY  26075.70040509  .00000000  00000+0  00000-0 0  9999
2 10036  40.0000 108.0000 0000000   0.0000 108.0000 15.48880433    19
CTC2_L_00046010-02
1 10037U 25289LK  26075.70040509  .00000000  00000+0  00000-0 0  9991
2 10037  40.0000 108.0000 0000000   0.0000 198.0000 15.48880433    19
CTC2_L_00046010-03
1 10038U 25764DT  26075.70040509  .00000000  00000+0  00000-0 0  9990
2 10038  40.0000 108.0000 0000000   0.0000 288.0000 15.48880433    10
CTC2_L_00046010-04
1 10039U 25672HY  26075.70040509  .00000000  00000+0  00000-0 0  9999
2 10039  40.0000 108.0000 0000000   0.0000  18.0000 15.48880433    12
CTC2_L_00046011-01
1 10040U 23203JJ  26075.70040509  .00000000  00000+0  00000-0 0  9999
2 10040  40.0000 120.0000 0000000   0.0000 120.0000 15.48880433    12
CTC2_L_00046011-02
1 10041U 26299CZ  26075.70040509  .00000000  00000+0  00000-0 0  9998
2 10041  40.0000 120.0000 0000000   0.0000 210.0000 15.48880433    13
CTC2_L_00046011-03
1 10042U 23370IS  26075.70040509  .00000000  00000+0  00000-0 0  9996
2 10042  40.0000 120.0000 0000000   0.0000 300.0000 15.48880433    14
CTC2_L_00046011-04
1 10043U 25813UG  26075.70040509  .00000000  00000+0  00000-0 0  9991
2 10043  40.0000 120.0000 0000000   0.0000  30.0000 15.48880433    15
CTC2_L_00046012-01
1 10044U 25590RA  26075.70040509  .00000000  00000+0  00000-0 0  9994
2 10044  40.0000 132.0000 0000000   0.0000 132.0000 15.48880433    12
CTC2_L_00046012-02
1 10045U 26098KP  26075.70040509  .00000000  00000+0  00000-0 0  9999
2 10045  40.0000 132.0000 0000000   0.0000 222.0000 15.48880433    13
CTC2_L_00046012-03
1 10046U 26122JA  26075.70040509  .00000000  00000+0  00000-0 0  9998
2 10046  40.0000 132.0000 0000000   0.0000 312.0000 15.48880433    14
CTC2_L_00046012-04
1 10047U 26774HS  26075.70040509  .00000000  00000+0  00000-0 0  9992
2 10047  40.0000 132.0000 0000000   0.0000  42.0000 15.48880433    15
CTC2_L_00046013-01
1 10048U 25161BA  26075.70040509  .00000000  00000+0  00000-0 0  9992
2 10048  40.0000 144.0000 0000000   0.0000 144.0000 15.48880433    12
CTC2_L_00046013-02
1 10049U 23849GW  26075.70040509  .00000000  00000+0  00000-0 0  9994
2 10049  40.0000 144.0000 0000000   0.0000 234.0000 15.48880433    13
CTC2_L_00046013-03
1 10050U 26099QS  26075.70040509  .00000000  00000+0  00000-0 0  9996
2 10050  40.0000 144.0000 0000000   0.0000 324.0000 15.48880433    15
CTC2_L_00046013-04
1 10051U 24046IP  26075.70040509  .00000000  00000+0  00000-0 0  9997
2 10051  40.0000 144.0000 0000000   0.0000  54.0000 15.48880433    16
CTC2_L_00046014-01
1 10052U 23010XH  26075.70040509  .00000000  00000+0  00000-0 0  9998
2 10052  40.0000 156.0000 0000000   0.0000 156.0000 15.48880433    13
CTC2_L_00046014-02
1 10053U 24657JO  26075.70040509  .00000000  00000+0  00000-0 0  9997
2 10053  40.0000 156.0000 0000000   0.0000 246.0000 15.48880433    14
CTC2_L_00046014-03
1 10054U 22292CC  26075.70040509  .00000000  00000+0  00000-0 0  9991
2 10054  40.0000 156.0000 0000000   0.0000 336.0000 15.48880433    15
CTC2_L_00046014-04
1 10055U 26923LO  26075.70040509  .00000000  00000+0  00000-0 0  9997
2 10055  40.0000 156.0000 0000000   0.0000  66.0000 15.48880433    16
CTC2_L_00046015-01
1 10056U 24507UO  26075.70040509  .00000000  00000+0  00000-0 0  9994
2 10056  40.0000 168.0000 0000000   0.0000 168.0000 15.48880433    13
CTC2_L_00046015-02
1 10057U 22050ED  26075.70040509  .00000000  00000+0  00000-0 0  9996
2 10057  40.0000 168.0000 0000000   0.0000 258.0000 15.48880433    14
CTC2_L_00046015-03
1 10058U 22811EN  26075.70040509  .00000000  00000+0  00000-0 0  9992
2 10058  40.0000 168.0000 0000000   0.0000 348.0000 15.48880433    15
CTC2_L_00046015-04
1 10059U 23275AH  26075.70040509  .00000000  00000+0  00000-0 0  9998
2 10059  40.0000 168.0000 0000000   0.0000  78.0000 15.48880433    16
CTC2_L_00046016-01
1 10060U 25832AD  26075.70040509  .00000000  00000+0  00000-0 0  9991
2 10060  40.0000 180.0000 0000000   0.0000 180.0000 15.48880433    16
CTC2_L_00046016-02
1 10061U 22837XP  26075.70040509  .00000000  00000+0  00000-0 0  9994
2 10061  40.0000 180.0000 0000000   0.0000 270.0000 15.48880433    17
